ObjectID;ProviderID;GoogleID;State;ActiveTime;Rank;TypeID;Name;Address;Phone;Lat;Lng
100;0;ChIJHfTfoqhC0EAROHRxJvZt8bg;0;;0;0;Celentano;вулиця Тараса Карпи, 66 /44, Кропивницький;;48.508914;32.265647
100;1;ChIJvS9D1q1C0EARZ-Fjm8XddYg;0;;0;0;Инкопмарк-Центр;вулиця Велика Перспективна, 21, Кропивницький;;48.512404;32.269758
100;2;ChIJ6yRHErFC0EAR229cDts6zz4;0;;0;0;Prima;вул. Леніна, 17/7, Кропивницький;;48.512174;32.264155
100;3;ChIJ2QtXxLFC0EARMpp4kH7N7AU;0;;0;0;Sho bar;вулиця Декабристів, 6/15, Кропивницький;;48.512403;32.263615
100;4;ChIJjf7CDK5C0EARa6jy011VnHg;0;;0;0;MELANGE;вулиця Гоголя, 72, Кропивницький;;48.508007;32.264273
100;5;ChIJMXHUzK9C0EAR7CqwD5gefWs;0;;0;0;Прага;вулиця В'ячеслава Чорновола, 31, Кропивницький;;48.51095;32.265121
100;6;ChIJhx4BOrtC0EARUlHAic6nCt0;0;;0;0;Кафе Колизей (не гостиница);переулок Речной 7а, Кировоград;;48.506959;32.257092
100;7;ChIJn2OaGa5C0EARQjVDnBN7waA;0;;0;0;ВСЕ ДЛЯ СУШІ, МАГАЗИН;вулиця В'ячеслава Чорновола, 25, Кропивницький;;48.512275;32.266268
100;8;ChIJxTKSeNZuCUER93R_15ZMBGk;0;;0;0;"Суши-бар ""Васаби""";32/34, вулиця Шевченка, Кропивницький;;48.511964;32.268054
100;9;ChIJ7zQLBKNC0EAR630Q6TzEAPk;0;;0;0;Инь Янь;2а, вулиця Соборна, Кропивницький;;48.502659;32.257163
100;10;ChIJ_e0n46hC0EARuVmICaGpDBM;0;;0;0;ЕвроАзия;вулиця Архітектора Паученка, 64, Кропивницький;;48.507971;32.273018
100;11;ChIJbQBu76JC0EAR842gi5rxjYQ;0;;0;0;Крила;вулиця Соборна, 1а, Кропивницький;;48.502045;32.255533
100;12;ChIJmckpL7dC0EARzl4DaGf4f6Y;0;;0;0;Шенген;Фуршет, вулиця Віктора Чміленка, 24А, Кропивницький;;48.51438;32.254504
100;13;ChIJ67Q5B8pC0EARW8wPy4peLvI;0;;0;0;Крила;вулиця Вокзальна, 20/1, Кропивницький;;48.517783;32.252947
100;14;ChIJzXqbu1Jd0EARRoxN03eS3aM;0;;0;0;Суши WOK;Кропивницький;;48.517625;32.273654
100;15;ChIJsawfQIZC0EARD7YXrAfxVjI;0;;0;0;Yapi;вул. Глінки, 2, Кропивницький;;48.5002;32.24788
100;16;ChIJT3Mb9yBo0EAR9EVYmZnCnJk;0;;0;0;АЗС WOG;Садова вулиця, 43, Кропивницький;;48.494075;32.264896
100;17;ChIJfQTsW-tC0EAReNLUO9BPClA;0;;0;0;Пицца Челентано;вулиця Євгена Тельнова, 90А, Кропивницький;;48.504189;32.223086
100;18;ChIJ__8LPqVC0EARMofUyw8_o2k;0;;0;0;Шаурма зеленый ларек;площа Богдана Хмельницького, 4, Кропивницький;;48.507548;32.261586
100;19;ChIJK-Pvb7BC0EARncc8JQk7kt8;0;;0;0;Корчма-музей Украинская Хата;вулиця В'ячеслава Чорновола, 50, Кропивницький;;48.508584;32.26258
100;20;ChIJobUFEa9C0EARZoSfryEme9U;0;;0;0;Мания;вулиця Віктора Чміленка, 57, Кропивницький;;48.50939;32.26745
100;21;ChIJvS9D1q1C0EARZ-Fjm8XddYg;0;;0;0;Инкопмарк-Центр;вулиця Велика Перспективна, 21, Кропивницький;;48.512404;32.269758
100;22;ChIJLcFEg8pC0EARl8zs1HGXeyI;0;;0;0;Okko;вулиця Вокзальна, 14-А, Кропивницький;;48.520213;32.255467
100;23;ChIJnx69Zx5o0EAR3JjXt6X-2-A;0;;0;0;Okko;вулиця Кропивницького, 183, Кропивницький;;48.499252;32.271757
100;24;ChIJLcFEg8pC0EARryc8TN4rl1I;0;;0;0;Okko;проспект Винниченка, 1Б, Кропивницький;;48.513314;32.252932
100;25;ChIJx7zCdaVC0EARfwt-FsD11Hw;0;;0;0;Франс.уа - пекарня, кофейня;ул. Преображенская 5 Г, Кировоград;;48.507463;32.263858
100;26;ChIJ4dqaga9C0EAR_kmDQ1VlVqk;0;;0;0;Crema Caffe Kropivnitskiy;вулиця Велика Перспективна, 46/91, Кропивницький;;48.50758;32.264191
100;27;ChIJjf7CDK5C0EARa6jy011VnHg;0;;0;0;MELANGE;вулиця Гоголя, 72, Кропивницький;;48.508007;32.264273
100;28;ChIJRUkIlK9C0EARQk9raCkfeKI;0;;0;0;Кальянная Куба №1;вулиця Тараса Карпи, 62/2, Кропивницький;;48.509614;32.263997
100;29;ChIJ37qqoa9C0EARUbF7qKIPXog;0;;0;0;Франс.уа - пекарня, кофейня;ул. Гоголя 78 А, Кировоград;;48.507545;32.266122
100;30;ChIJ7YjhC69C0EARR0Oo2v60D2A;0;;0;0;WINE AND TAPAS;вулиця Віктора Чміленка, 84, Кропивницький;;48.509339;32.266892
100;31;ChIJhx4BOrtC0EARUlHAic6nCt0;0;;0;0;Кафе Колизей (не гостиница);переулок Речной 7а, Кировоград;;48.506959;32.257092
100;32;ChIJ62XnVa5C0EARALDuJS3Uyf0;0;;0;0;Пельмени И Вареники;вулиця Велика Перспективна, 31/36, Кропивницький;;48.510474;32.267736
100;33;ChIJ6xxAWq5C0EARguH6D7mA-c0;0;;0;0;Старый город;вулиця Велика Перспективна, 36, Кропивницький;;48.510844;32.267519
100;34;ChIJ9wQme69C0EARb2S9LsNWlm0;0;;0;0;Франс.уа - пекарня, кофейня;вулиця Велика Перспективна, 25, Кропивницький;;48.511235;32.268368
100;35;ChIJ_e0n46hC0EARuVmICaGpDBM;0;;0;0;ЕвроАзия;вулиця Архітектора Паученка, 64, Кропивницький;;48.507971;32.273018
100;36;ChIJ0RgPa6BC0EARUz22wRDig4Y;0;;0;0;"Супермаркет шашлыка ""Мангал""";48, Верхня Пермська вулиця, Кропивницький;;48.498059;32.26617
100;37;ChIJl1LBsFJd0EARj7cGyMqigsY;0;;0;0;Feeling Coffee;вулиця Велика Перспективна, 1-3, Кропивницький;;48.517304;32.273393
100;38;ChIJnx69Zx5o0EARWoTow2Rl9H8;0;;0;0;Okko;Преображенська вулиця, 90А, Кропивницький;;48.499322;32.282053
100;39;ChIJVUyaW5ZC0EARgNTKpZ27E5k;0;;0;0;Їжак;вулиця Соборна, 28, Кропивницький;;48.501152;32.244585
100;40;ChIJ2QtXxLFC0EARMpp4kH7N7AU;0;;0;0;Sho bar;вулиця Декабристів, 6/15, Кропивницький;;48.512403;32.263615
100;41;ChIJMx0807BC0EARsBbxjrmI504;0;;0;0;Velvet;вулиця Віктора Чміленка, 24, Кропивницький;;48.513014;32.256821
100;42;ChIJjf7CDK5C0EARa6jy011VnHg;0;;0;0;MELANGE;вулиця Гоголя, 72, Кропивницький;;48.508007;32.264273
100;43;ChIJRUkIlK9C0EARQk9raCkfeKI;0;;0;0;Кальянная Куба №1;вулиця Тараса Карпи, 62/2, Кропивницький;;48.509614;32.263997
100;44;ChIJMXHUzK9C0EAR7CqwD5gefWs;0;;0;0;Прага;вулиця В'ячеслава Чорновола, 31, Кропивницький;;48.51095;32.265121
100;45;ChIJr03KKK5C0EARVzMHwPDgUJ0;0;;0;0;Ne Speshi bar;вулиця Архітектора Паученка, 28, Кропивницький;;48.511662;32.264744
100;46;ChIJp9v0465C0EAR0n_d6Ogn74I;0;;0;0;Ne Speshi bar;вулиця Архітектора Паученка, 28, Кропивницький;;48.510067;32.268999
100;47;ChIJ_e0n46hC0EARuVmICaGpDBM;0;;0;0;ЕвроАзия;вулиця Архітектора Паученка, 64, Кропивницький;;48.507971;32.273018
100;48;ChIJzSDxNRFD0EAR4nmYQ2HaCrg;0;;0;0;BRO Bar;Преображенська вулиця, 4, Кропивницький;;48.507392;32.261852
100;49;ChIJoSe-6XtD0EARF9CbhWuPGwY;0;;0;0;Не Добро Пожаловать;вулиця Велика Перспективна, 62, Кропивницький;;48.506033;32.262877
100;50;ChIJaaaD669C0EARzFv4ZOSpzeo;0;;0;0;Куба 1;вулиця В'ячеслава Чорновола, 41, Кропивницький;;48.509595;32.263977
100;51;ChIJZZzb7VZD0EAR_mU3PGlDOFY;0;;0;0;Gastro bar “Wine & Tapas”;вулиця В'ячеслава Чорновола, 37/76, Кропивницький;;48.510202;32.264701
100;52;ChIJy6MLMq5C0EARgwdl1s-VLJw;0;;0;0;Шалений Патрік;36/30, Черновіла, Кропивницки;;48.511372;32.265132
100;53;ChIJ7Rz6KK5C0EARTYC8AMQv36g;0;;0;0;Черчель;30/36, вулиця Леніна, 30/36, Кропивницький;;48.511613;32.26479
100;54;ChIJAQDw0LFC0EAR7LUApCBT3l4;0;;0;0;Churchill's Pub;вулиця Архітектора Паученка, 28, Кропивницький;;48.511674;32.264873
100;55;ChIJnbg5wbFC0EARnMPhdSFe23s;0;;0;0;MOVI;вулиця Декабристів, 8/22, Кропивницький;;48.512084;32.263747
100;56;ChIJq22ZSLpD0EARGDCLbrWLntg;0;;0;0;Grill Pub;Кропивницький;;48.512443;32.262796
100;57;ChIJIdcB-a5C0EARNRheMYW9glg;0;;0;0;"Традиційна броварня "" Дудляр""";Кропивницький;;48.510527;32.268073
100;58;ChIJjVKFIq5C0EARW_iljAQRueo;0;;0;0;Prado;вулиця В'ячеслава Чорновола, 30, Кропивницький;;48.512033;32.265966
100;59;ChIJWU4knodD0EARe6CJzqACyIQ;0;;0;0;"Bar ""Muzey""";вулиця Декабристів, 4, Кропивницький;;48.512787;32.264383
100;60;ChIJJw2JXqVC0EARID70bTamVsM;0;;0;0;Корчма;вулиця В'ячеслава Чорновола, 50, Кропивницький;;48.508619;32.262736
100;61;ChIJ3woSdKVC0EARCOdQuxbRrxU;0;;0;0;Франсуа - бутерброди 24/7;Кропивницький;;48.50753;32.263571
100;62;ChIJMXYiv6VC0EARP4mZQic11Zk;0;;0;0;Shaurma;Преображенська вулиця, Кропивницький;;48.50654;32.265011
100;63;ChIJJ_5ulq9C0EARLlQQvpRWI3Y;0;;0;0;GRANAT RESTAURANT;г, Карпа, 59, вулиця Тараса Карпи, Кропивницький;;48.509505;32.264892
100;64;ChIJwf9en69C0EARhUFxCIi4wto;0;;0;0;Makfoksi;вулиця Велика Перспективна, 38, Кропивницький;;48.509304;32.265882
100;65;ChIJ2WfZoa9C0EARMeECyinJams;0;;0;0;Shaurmen;вулиця Велика Перспективна, 38, Кропивницький;;48.50931;32.265958
100;66;ChIJOxiT3aVC0EARkbYl403KiVQ;0;;0;0;Максим;Преображенська вулиця, 17/65, Кропивницький;;48.506259;32.266561
100;67;ChIJZfaw2KVC0EARtfoMI-GcwEk;0;;0;0;Sushi KADO;Пашутинська вулиця, 69, Кропивницький;;48.505858;32.266653
100;68;ChIJy6MLMq5C0EARgwdl1s-VLJw;0;;0;0;Шалений Патрік;36/30, Черновіла, Кропивницки;;48.511372;32.265132
100;69;ChIJqVviKK5C0EARsj4HK26ds6s;0;;0;0;Scorini;вулиця Архітектора Паученка, 28, Кропивницький;;48.511545;32.264961
100;70;ChIJtyin2M5D0EARd0DSCZADdMU;0;;0;0;Lounge Bar Granat;вулиця В'ячеслава Чорновола, 30а, Кропивницький;;48.512239;32.26551
100;71;ChIJVVVlv7FC0EARPI65BnVxqZs;0;;0;0;Spring Club;13,, вулиця Леніна, 13, Кропивницький;;48.512687;32.263316
100;72;ChIJJdGnIK9C0EARB0R0gnTPleA;0;;0;0;Sorrento;Пашутинська вулиця, 37, Кропивницький;;48.509534;32.2696
100;73;ChIJOV6K465C0EARkoOyA5mYlyg;0;;0;0;Sorrento;вулиця Архітектора Паученка, 46, Кропивницький;;48.509548;32.269631
100;74;ChIJqYiLZa5C0EARuG3jRHsHiDQ;0;;0;0;FAMILIA GARDEN;вулиця Велика Перспективна, 34/32, Кропивницький;;48.51167;32.268231
100;75;ChIJ_2LuT6ZC0EARGpuhv_0SWCY;0;;0;0;Admiral;Адмирал, Преображенська вулиця, 26, Кропивницький;;48.504839;32.26925
100;76;ChIJWfUTEllC0EARZAiU0NWl7Vk;0;;0;0;Лавіта;вул. Велика Перспективна, 32/11, Кропивницький;;48.512119;32.268601
100;77;ChIJESGacK5C0EARGoEKGXUhVUs;0;;0;0;Пиццерия La Vita;вулиця Велика Перспективна, 32/11, Кропивницький;;48.512152;32.268704
100;78;ChIJAai8c6BC0EAR49vv_UXowvM;0;;0;0;Розмарин;Верхня Пермська вулиця, 8, Кропивницький;;48.501931;32.261996
100;79;ChIJxfKShq5C0EARUj-vjxXuRNQ;0;;0;0;Smachni Tradytsiyi;вулиця Шевченка, 15, Кропивницький;;48.511611;32.269729
100;80;ChIJP5o2AB1o0EARSHSZx4c3oEE;0;;0;0;кафе баку;Преображенська вулиця, Кропивницький;;48.496721;32.290277
100;81;ChIJb5IWaqVC0EAR0UltFwivGFg;0;;0;0;ЗІРКА, КАФЕ;Двірцева вул. 22А, Кропивницький;;48.507933;32.262317
100;82;ChIJb5IWaqVC0EARgaC2BUPltjg;0;;0;0;СПОРТ ТАЙМ, КАФЕ;Двірцева вул. 13, Кропивницький;;48.507933;32.262317
100;83;ChIJb5IWaqVC0EARsjWO1OAo4vI;0;;0;0;АРКАДА, КАФЕ;Пашутіна вул. 69А, Кропивницький;;48.507933;32.262317
100;84;ChIJid9PzOFD0EARlrMcgeuyaBM;0;;0;0;Хорошофудотindia;Кропивницький;;48.50759;32.26147
100;85;ChIJj3-APqVC0EARD4JylX0uLUI;0;;0;0;Vis-a-vis;Подильский Кропивни?цкий, Кировоградская, Кропивницький;;48.507582;32.26144
100;86;ChIJ9fQkwqVC0EARbvd3UwWlSOU;0;;0;0;Muray, Tts;Преображенська вулиця, 4, Кропивницький;;48.507309;32.26293
100;87;ChIJt464d6VC0EAREVopB_IAYBY;0;;0;0;Fresh Point;25000, вулиця Велика Перспективна, 46/91, Кропивницький;;48.507662;32.26411
100;88;ChIJx8shVllD0EARVkwGJXleCcE;0;;0;0;Кафе-бар Сириус;пгт, вулиця Велика Перспективна, 50 Б, Знам'янка Друга;;48.506696;32.263265
100;89;ChIJh4yq9aVC0EARWFIFfva9Vs8;0;;0;0;Gogol espresso bar;вулиця Гоголя, 91/46, Кропивницький;;48.508435;32.264844
100;90;ChIJcTO6trZD0EARF2cAaYmSHNQ;0;;0;0;Восточный уголок в Кропивницком;Кропивницький;;48.509241;32.259498
100;91;ChIJ8YcF3sND0EAR-QQ6Aphn1tQ;0;;0;0;Кофейня ФРАНЦ.УА;вулиця Гоголя, 91, Кропивницький;;48.507814;32.265779
100;92;ChIJ79r-UKRC0EAR7SJ5f2LUDBk;0;;0;0;Суши BOX;64, вулиця Велика Перспективна, Кропивницький;;48.505632;32.262571
100;93;ChIJJUpfRwpD0EARSh2bIPAsgG8;0;;0;0;Coffee Mobile;вулиця Набережна, Кропивницький;;48.505426;32.262368
100;94;ChIJbVCFxqVC0EARySKtWVihMzw;0;;0;0;кафе Виктория;Преображенська вулиця, 15, Кропивницький;;48.506207;32.265373
100;95;ChIJZVTEZq9C0EAR-PtJUJ6begI;0;;0;0;Coffee Life;Центральна вулиця, 3, Кропивницький;;48.508045;32.266778
100;96;ChIJs7-RjOFD0EARp_pz3OJUNHY;0;;0;0;TEAHOUSE;;;48.509711;32.26596
100;97;ChIJJ9vy8KVC0EARXIHIUSRrzBc;0;;0;0;Восток;Пашутинська вулиця, 48/82, Кропивницький;;48.507082;32.267007
100;98;ChIJldYgmrpC0EARwZAM6LUYn90;0;;0;0;Старий круг;вулиця Шульгиних, 32, Кропивницький;;48.50974;32.258021
100;99;ChIJkUyS1KVC0EARtSIWo401RyA;0;;0;0;Джи-джи;Пашутинська вулиця, 73/1, Кропивницький;;48.505325;32.26566
100;100;ChIJIQKq77FC0EAR3aOemhFUHBk;0;;0;0;PUB DROVA;вулиця Декабристів, 2/14, Кропивницький;;48.512989;32.264721
100;101;ChIJ90mT565C0EAR5YlcNui0I4k;0;;0;0;OBLAKA;26, вулиця Архітектора Паученка, 41, Кропивницький;;48.510117;32.269709
100;102;ChIJ-TM0RKZC0EARDWj5Lg7Nk4Y;0;;0;0;Пудинг;Преображенська вулиця, 27а, Кропивницький;;48.505178;32.26933
100;103;ChIJqYiLZa5C0EARuG3jRHsHiDQ;0;;0;0;FAMILIA GARDEN;вулиця Велика Перспективна, 34/32, Кропивницький;;48.51167;32.268231
100;104;ChIJ_2LuT6ZC0EARVoYolywbnMY;0;;0;0;АДМІРАЛ, БАР;Преображенська вулиця, 26, Кропивницький;;48.504839;32.26925
100;105;ChIJA5pzb65C0EARTlQCZj9gsjM;0;;0;0;Zer Hut Nimets?ke Pyvo Rozlyvne;вулиця Велика Перспективна, 34/32, Кропивницький;;48.511853;32.26826
100;106;ChIJUetrjI9D0EAR46XDL1_GHtY;0;;0;0;"Pab ""Zer Hud""";вулиця Шевченка, 32/34, Кропивницький;;48.511957;32.268166
100;107;ChIJ829OFbFC0EARnxvjzHUJUCQ;0;;0;0;Такси;вулиця Нейгауза, 3, Кропивницький;;48.513874;32.260144
100;108;ChIJJYi3oOxD0EARoesXgOpJQb0;0;;0;0;Lomaka_Bar;вулиця Велика Перспективна, 21-17, Кропивницький;;48.513204;32.270068
100;109;ChIJk2mmiq1C0EARTDRR34R5OD8;0;;0;0;Western, СНЕК-БАР;вулиця В'ячеслава Чорновола, 14/2, Кропивницький;;48.514305;32.267902
100;110;ChIJBXAbP6lC0EAREHXCm6_IIW8;0;;0;0;Manhal;вулиця Шевченка, 56, Кропивницький;;48.509655;32.273313
100;111;ChIJd0EBr7NC0EART2AmG5ZUfh0;0;;0;0;Pyvovarnya;Зірка, вул. Гагаріна, 1А, Кропивницький;;48.516267;32.264508
100;112;ChIJu8lEU71C0EARbR0dvm-c1N8;0;;0;0;Shashlychnyy Dvir;вулиця Соборна, 1, Кропивницький;;48.50163;32.251649
100;113;ChIJR_Qo2qtC0EARoML0GsGgpho;0;;0;0;CULT HOOKAH BAR;вулиця Гагаріна, 32/32, Кропивницький;;48.510604;32.276254
100;114;ChIJE13YGbZC0EARy9BghX5meGM;0;;0;0;Дудляр;вулиця Вокзальна, 39, Кропивницький;;48.516518;32.252504
100;115;ChIJT6k3kB9o0EARQZv5oxi1gmQ;0;;0;0;Кафе Алсан;Кропивницький;;48.496779;32.268349
100;116;ChIJk4dhkiFo0EARhrs-VaPNaAk;0;;0;0;"Buffet ""Empire-S""";Верхня Пермська вулиця, 73, Кропивницький;;48.493985;32.269768
100;117;ChIJnxY4H5VC0EARfGo0ECgvqKQ;0;;0;0;"Steakhouse ""Come In""";вулиця Академіка Корольова, 2, Кропивницький;;48.502919;32.237772
100;118;ChIJQ7xdtVZd0EARnEWoAlu3k9w;0;;0;0;Marho;Олександрівське шосе, 35, Кропивницький;;48.520019;32.284982
100;119;ChIJcb_Fy1Zd0EAReTxItFcB0hA;0;;0;0;Barvinok;Кропивницький;;48.520119;32.285471
100;120;ChIJee7VDrpC0EARRGSdLXXtmfY;0;;0;0;Подкова;проспект Винниченка, Кропивницький;;48.511761;32.254916
100;121;ChIJ4UO21a1C0EARjnyTzs-0nTU;0;;0;0;Pahlava;вулиця Велика Перспективна, 21, Кропивницький;;48.512483;32.270067
100;122;ChIJeYQ-9q1C0EAR5LP5MHDl5DM;0;;0;0;Баклажан;вулиця В'ячеслава Чорновола, 16, Кропивницький;;48.513929;32.26751
100;123;ChIJl0Bj76hC0EARKdsBJ4jyajA;0;;0;0;Евроазия Суши-бар;вулиця Михайлівська, 55, Кропивницький;;48.507916;32.272972
100;124;ChIJBXAbP6lC0EAREHXCm6_IIW8;0;;0;0;Manhal;вулиця Шевченка, 56, Кропивницький;;48.509655;32.273313
100;125;ChIJ2YANr7NC0EARabZmzhv-kGI;0;;0;0;Звезда;вулиця Шевченка, 1Б, Кропивницький;;48.516247;32.264458
100;126;ChIJd0EBr7NC0EART2AmG5ZUfh0;0;;0;0;Pyvovarnya;Зірка, вул. Гагаріна, 1А, Кропивницький;;48.516267;32.264508
100;127;ChIJy8V7Yp9C0EARTZQyj3ulydw;0;;0;0;vip-хатинка;вул. Куроп'ятникова, 23, Кропивницький;;48.498535;32.260482
100;128;ChIJXysPj7RC0EARSgYdVuq5wLQ;0;;0;0;Dzyga;вулиця Кавалерійська, 2, Кропивницький;;48.517822;32.261713
100;129;ChIJQZdxhrRC0EARG_75t2JFuVw;0;;0;0;"Столовая ""Веста""";вулиця Кавалерійська, 1/2, Кропивницький;;48.517894;32.26173
100;130;ChIJVYPgGLZC0EARHzaFMkpPPW4;0;;0;0;Shaurman;вулиця Вокзальна, 24, Кропивницький;;48.516463;32.251852
100;131;ChIJrU-3Vk1d0EARS-EStWPB4CI;0;;0;0;Sultan Cafe_султан Кафе;Студентський бульвар, 1, Кропивницький;;48.517681;32.271633
100;132;ChIJJTaF3-xd0EARiieQsa6rYRI;0;;0;0;Big Boss Food - сервис доставки здорового питания;Коммунистический пр-т. д. 1Б, Кропивницький;;48.517549;32.272016
100;133;ChIJZWKAV01d0EARRUdDLFxxDsg;0;;0;0;Ланжерон;ул.Черновола 1в, Кропивницький;;48.517833;32.27207
100;134;ChIJX3ymfOZc0EARJWvBvTJYVhk;0;;0;0;London;Московская ул., 13, Кропивницький;;48.518369;32.273493
100;135;ChIJBQUcRVNd0EARsSz82ji4COM;0;;0;0;Сахтейн - ?????;Арсения Тарковского, 3, Кропивницький;;48.515618;32.277956
100;136;ChIJ-8IJOJRC0EARsxTugJm4AAU;0;;0;0;Шаурмен;вулиця Євгена Тельнова, 1, Кропивницький;;48.501503;32.239488
100;137;ChIJM3YZmcpC0EARzT2BqCitE1w;0;;0;0;Суши Box;вулиця Київська, 19, Кропивницький;;48.523971;32.245389
100;138;ChIJ09psSpNC0EARpDrpMv84qKw;0;;0;0;Gloria;вулиця Євгена Тельнова, 4-5, Кропивницький;;48.500623;32.231548
100;139;ChIJwdjq8etC0EARvpLQC5qJFPM;0;;0;0;"Ресторан ""У Эльшана""";вулиця Бєляєва, 16, Кропивницький;;48.503887;32.227024
100;140;ChIJSTRI6ilo0EAR-ZZsNvrsnSk;0;;0;0;"Какао бар ""Пудинг""";Преображенська вулиця, Кропивницький;;48.485489;32.252575
100;141;ChIJIX9HyFld0EARRe5eBSygRw0;0;;0;0;Бильярдный Клуб Беток;Крутий провулок, 5, Кропивницький;;48.523261;32.292771
100;142;ChIJBwARpQVd0EARmpve4F1Jn84;0;;0;0;"Гриль-паб ""Гарячі перці""";Полтавська вулиця, 28, Кропивницький;;48.523507;32.292488
100;143;ChIJS4AXmO5C0EAR8tVUxq83ubY;0;;0;0;Кафе-бар Кактус;вулиця Євгена Тельнова, 15м, Кропивницький;;48.503324;32.224019
100;144;ChIJtccOEL9d0EARHIWuL5xi8C0;0;;0;0;PlayBar;Варшавська вулиця, 89, Кропивницький;;48.538249;32.252261
100;145;ChIJNb3BDq9C0EARHBNVdemwvio;0;;0;0;Кафе Dream Room;вулиця Віктора Чміленка, 59, Кропивницький;;48.509361;32.267173
100;146;ChIJqVviKK5C0EARsj4HK26ds6s;0;;0;0;Scorini;вулиця Архітектора Паученка, 28, Кропивницький;;48.511545;32.264961
100;147;ChIJw0nEL65C0EARaFhEI_WSt4I;0;;0;0;Мокко;вулиця В'ячеслава Чорновола, 36/30, Кропивницький;;48.511466;32.265306
100;148;ChIJfYNOAK9C0EARLXtq6_-Z3o8;0;;0;0;Варенична;вулиця Велика Перспективна, 31/36, Кропивницький;;48.510059;32.267579
100;149;ChIJV1UO2LFC0EARrMUO_uQZUWs;0;;0;0;Istanbul Doner King of Kebabs;вулиця Архітектора Паученка, Кропивницький;;48.511837;32.264676
100;150;ChIJjQ6jjqZC0EARg2biqaKIIJo;0;;0;0;"Кафе ""Талисман""";Улица Покровская 4- а, Кропивницький;;48.504608;32.26621
100;151;ChIJ1U53woVD0EARvBM1fhAlybw;0;;0;0;Bodryi Kot;вулиця Архітектора Паученка, 29, Кропивницький;;48.511303;32.266238
100;152;ChIJS2GKSK5C0EARpEsGs8vIsFs;0;;0;0;Kex Bar;Кропивницький;;48.511079;32.266655
100;153;ChIJIR6_SK5C0EARpL1gG3GoSEU;0;;0;0;Kex bar;вулиця Леніна, 23, Кропивницький;;48.51108;32.266674
100;154;ChIJ7wmd-K5C0EARFwceHjM92HM;0;;0;0;DVA Coffee;вулиця Архітектора Паученка, 38, Кропивницький;;48.510571;32.267871
100;155;ChIJaRIvVq5C0EARhkpL-5fdtE8;0;;0;0;DVA Coffee;Кропивницький;;48.51056;32.267903
100;156;ChIJ2cjBubFC0EAR4WA3yOIc8dg;0;;0;0;Dubai_cafe;Кропивницький;;48.512481;32.262682
100;157;ChIJPZjr-7BC0EARS9Ir0t9SZbU;0;;0;0;Амен;вулиця Віктора Чміленка, 52, Кропивницький;;48.512238;32.259663
100;158;ChIJi68eW65C0EARY5xvpm7UCZQ;0;;0;0;Горком;вулиця Велика Перспективна, 36, Кропивницький;;48.511067;32.267574
100;159;ChIJUfgLI3FD0EARUzmfzd0w-5Y;0;;0;0;Кофейня Korizza;вулиця Архітектора Паученка, 16/7, Кропивницький;;48.512649;32.262493
100;160;ChIJ6a86WK5C0EARK_i14kP8rMI;0;;0;0;Caffeine - Кофеин - Кофеїн;вулиця Велика Перспективна, 29/35, Кропивницький;;48.510791;32.267999
100;161;ChIJIVoY3OBD0EARKC4ZGfqY3rs;0;;0;0;Coffee Mobile;вулиця Архітектора Паученка, 38, Кропивницький;;48.510219;32.26868
100;162;ChIJ46MzQq5C0EARtmTgvqOOWSQ;0;;0;0;Yevro;вулиця Велика Перспективна, 36А, Кропивницький;;48.511466;32.267392
100;163;ChIJeyIgdbpC0EAR6ZS1TQXdbmg;0;;0;0;ПІДКОВА, КАФЕ;проспект Винниченка, 11, Кропивницький;;48.510769;32.256254
100;164;ChIJm2b0XK5C0EARecn2nsoQopc;0;;0;0;Крила;"33 (ТЦ ""Пассаж, вулиця Велика Перспективна, 38, Кропивницький";;48.51123;32.267868
